QIANFAN-81              
1 63167U 25046J   25325.60314022  .00000120  00000+0  16627-3 0  9992
2 63167  88.9751 322.0619 0014687 174.7157 185.4152 13.50996544 44633
QIANFAN-82              
1 63168U 25046K   25325.56273979  .00000077  00000+0  99884-4 0  9991
2 63168  88.9751 322.1098 0012570 181.7014 178.4096 13.50976369 44615
QIANFAN-83              
1 63169U 25046L   25325.61380112  .00000049  00000+0  47452-4 0  9999
2 63169  88.9752 321.9224 0014313 168.5846 191.5638 13.61969640 44724
QIANFAN-84              
1 63170U 25046M   25325.59071315 -.00000033  00000+0 -69207-4 0  9997
2 63170  88.9750 322.2398 0015637 179.7858 180.3302 13.50985921 44549
QIANFAN-85              
1 63171U 25046N   25325.58732924  .00000114  00000+0  15785-3 0  9996
2 63171  88.9751 322.1118 0012959 180.7571 179.3562 13.50981287 44613
QIANFAN-86              
1 63172U 25046P   25325.52158411  .00000093  00000+0  12551-3 0  9998
2 63172  88.9753 321.9803 0010719 183.7312 176.3761 13.50978063 44685
QIANFAN-87              
1 63173U 25046Q   25325.56692652  .00000014  00000+0  31078-5 0  9993
2 63173  88.9749 322.0882 0011539 179.1770 180.9402 13.50970995 44621
QIANFAN-88              
1 63174U 25046R   25325.58334477  .00000094  00000+0  12691-3 0  9990
2 63174  88.9752 322.0404 0011662 187.5156 172.5822 13.50975703 44652
